[{"OBJECT_NAME":"STARLINK-33961","OBJECT_ID":"2025-102AB","EPOCH":"2026-03-09T12:04:41.060064","MEAN_MOTION":14.98362597,"ECCENTRICITY":0.00027971,"INCLINATION":70.0017,"RA_OF_ASC_NODE":114.9515,"ARG_OF_PERICENTER":251.6237,"MEAN_ANOMALY":108.4618,"EPHEMERIS_TYPE":0,"CLASSIFICATION_TYPE":"U","NORAD_CAT_ID":64047,"ELEMENT_SET_NO":999,"REV_AT_EPOCH":4580,"BSTAR":-0.0019274743,"MEAN_MOTION_DOT":-0.00023035,"MEAN_MOTION_DDOT":0},{"OBJECT_NAME":"AIST-1 (RS41)","OBJECT_ID":"2013-078C","EPOCH":"2026-03-09T23:05:53.785248","MEAN_MOTION":14.95763496,"ECCENTRICITY":0.00150774,"INCLINATION":82.4188,"RA_OF_ASC_NODE":6.9784,"ARG_OF_PERICENTER":249.0877,"MEAN_ANOMALY":110.8731,"EPHEMERIS_TYPE":0,"CLASSIFICATION_TYPE":"U","NORAD_CAT_ID":39492,"ELEMENT_SET_NO":999,"REV_AT_EPOCH":66041,"BSTAR":0.00019220788,"MEAN_MOTION_DOT":2.171e-5,"MEAN_MOTION_DDOT":0}]
